NORAD_CAT_ID,OBJECT_NAME,OBJECT_TYPE,EPOCH,MEAN_MOTION,ECCENTRICITY,INCLINATION,RA_OF_ASC_NODE,ARG_OF_PERICENTER,MEAN_ANOMALY,BSTAR,MEAN_MOTION_DOT,MEAN_MOTION_DDOT,TLE_LINE0,TLE_LINE1,TLE_LINE2,SEMIMAJOR_AXIS,PERIOD,APOGEE,PERIGEE,DECAYED
54779.0,TBA - TO BE ASSIGNED,UNKNOWN,2022-12-27 18:00:00,15.78012535,0.0002525,53.2177,256.9891,266.5604,17.9141,-0.0075766,-0.01170421,0.0,0 TBA - TO BE ASSIGNED,1 54779U 22175X   22361.75001157 -.01170421  00000-0 -75766-2 0  9990,2 54779  53.2177 256.9891 0002525 266.5604  17.9141 15.78012535  1306,6714.209,91.254,337.77,334.379,
54779.0,TBA - TO BE ASSIGNED,UNKNOWN,2022-12-27 22:00:00,15.77594992,0.0004197,53.2172,256.1599,270.8959,240.8006,-0.0079416,-0.01201224,0.0,0 TBA - TO BE ASSIGNED,1 54779U 22175X   22361.91667824 -.01201224  00000-0 -79416-2 0  9999,2 54779  53.2172 256.1599 0004197 270.8959 240.8006 15.77594992  1304,6715.394,91.278,340.077,334.441,
54779.0,STARLINK-5447,PAYLOAD,2022-12-28 14:00:01,15.75856038,0.0001416999999999,53.2172,252.8422,31.5072,306.4955,-0.0085312,-0.01192899,0.0,0 STARLINK-5447,1 54779U 22175X   22362.58334491 -.01192899  00000-0 -85312-2 0  9993,2 54779  53.2172 252.8422 0001417  31.5072 306.4955 15.75856038  1438,6720.333000000001,91.379,343.151,341.246,0.0
54779.0,STARLINK-5447,PAYLOAD,2022-12-28 22:00:00,15.74991289,0.0001345,53.2172,251.1889,45.477,24.1111,-0.0088991,-0.01197099,0.0,0 STARLINK-5447,1 54779U 22175X   22362.91667824 -.01197099  00000-0 -88991-2 0  9992,2 54779  53.2172 251.1889 0001345  45.4770  24.1111 15.74991289  1307,6722.793000000002,91.429,345.56199999999984,343.754,0.0
54779.0,STARLINK-5447,PAYLOAD,2022-12-29 14:00:01,15.73258366,0.0001686999999999,53.2173,247.8835,35.6768,214.0141,-0.00063577,-0.00089133,0.0,0 STARLINK-5447,1 54779U 22175X   22363.58334491 -.00089133  00000-0 -63577-3 0  9999,2 54779  53.2173 247.8835 0001687  35.6768 214.0141 15.73258366  1582,6727.729,91.53,350.72900000000016,348.459,0.0
54779.0,STARLINK-5447,PAYLOAD,2022-12-29 22:00:00,15.73146468,0.0001673,53.2147,246.2378,38.1137,300.8871,-7.840000000000001e-05,-0.00011583,0.0,0 STARLINK-5447,1 54779U 22175X   22363.91667824 -.00011583  00000-0 -78400-4 0  9991,2 54779  53.2147 246.2378 0001673  38.1137 300.8871 15.73146468  1641,6728.0480000000025,91.536,351.038,348.787,0.0
54779.0,STARLINK-5447,PAYLOAD,2022-12-30 14:00:01,15.73128361,0.000135,53.2146,242.9372,36.7806,119.9738,0.0006952999999999,0.00097802,0.0,0 STARLINK-5447,1 54779U 22175X   22364.58334491  .00097802  00000-0  69530-3 0  9995,2 54779  53.2146 242.9372 0001350  36.7806 119.9738 15.73128361  1740,6728.099,91.537,350.87300000000016,349.056,0.0
54779.0,STARLINK-5447,PAYLOAD,2022-12-30 22:00:00,15.728679,0.0001271,53.2173,241.2874,46.1265,199.5051,0.0036601,0.00539812,0.0,0 STARLINK-5447,1 54779U 22175X   22364.91667824  .00539812  00000-0  36601-2 0  9995,2 54779  53.2173 241.2874 0001271  46.1265 199.5051 15.72867900  1790,6728.842,91.553,351.56199999999984,349.852,0.0
54779.0,STARLINK-5447,PAYLOAD,2022-12-31 06:00:00,15.73186859,0.0001616,53.2148,239.64,33.4254,301.126,5.0568e-05,6.478e-05,0.0,0 STARLINK-5447,1 54779U 22175X   22365.25001157  .00006478  00000-0  50568-4 0  9991,2 54779  53.2148 239.6400 0001616  33.4254 301.1260 15.73186859  1856,6727.933000000001,91.534,350.885,348.71,0.0
54779.0,STARLINK-5447,PAYLOAD,2022-12-31 14:00:01,15.7320137,0.0001449,53.2148,237.989,39.0141,24.4369,-5.737e-05,-8.664e-05,0.0,0 STARLINK-5447,1 54779U 22175X   22365.58334491 -.00008664  00000-0 -57370-4 0  9996,2 54779  53.2148 237.9890 0001449  39.0141  24.4369 15.73201370  1302,6727.891,91.533,350.731,348.781,0.0
54779.0,STARLINK-5447,PAYLOAD,2022-12-31 22:00:00,15.73160911,0.0001629,53.2146,236.3414,35.1695,117.2031,-0.00030987,-0.00043811,0.0,0 STARLINK-5447,1 54779U 22175X   22365.91667824 -.00043811  00000-0 -30987-3 0  9999,2 54779  53.2146 236.3414 0001629  35.1695 117.2031 15.73160911  1308,6728.007,91.535,350.968,348.776,0.0
54779.0,STARLINK-5447,PAYLOAD,2023-01-01 14:00:01,15.73095892,0.0001526,53.2145,233.0407,44.7946,285.2833,0.00073927,0.00103959,0.0,0 STARLINK-5447,1 54779U 22175X   23001.58334491  .00103959  00000-0  73927-3 0  9990,2 54779  53.2145 233.0407 0001526  44.7946 285.2833 15.73095892  2069,6728.191999999999,91.539,351.084,349.03,0.0
54779.0,STARLINK-5447,PAYLOAD,2023-01-02 00:00:00,15.73158703,0.0001754999999999,53.2148,230.9814,37.9023,133.2553,0.0006547,0.00092114,0.0,0 STARLINK-5447,1 54779U 22175X   23002.00001157  .00092114  00000-0  65470-3 0  9992,2 54779  53.2148 230.9814 0001755  37.9023 133.2553 15.73158703  1302,6728.013000000001,91.536,351.059,348.69699999999995,0.0
54779.0,STARLINK-5447,PAYLOAD,2023-01-02 00:48:02,15.73176297,0.0001478,53.2147,230.8145,45.743,314.3711,0.00047767,0.00066885,0.0,0 STARLINK-5447,1 54779U 22175X   23002.03335731  .00066885  00000-0  47767-3 0  9998,2 54779  53.2147 230.8145 0001478  45.7430 314.3711 15.73176297  2136,6727.9630000000025,91.535,350.82199999999995,348.833,0.0
54779.0,STARLINK-5447,PAYLOAD,2023-01-02 14:31:21,15.73248759,0.0001654,53.2144,227.9865,39.7118,320.4023,0.00033969,0.00047423,0.0,0 STARLINK-5447,1 54779U 22175X   23002.60510497  .00047423  00000-0  33969-3 0  9991,2 54779  53.2144 227.9865 0001654  39.7118 320.4023 15.73248759  4387,6727.755999999999,91.53,350.7340000000001,348.5080000000001,0.0
54779.0,STARLINK-5447,PAYLOAD,2023-01-02 16:02:49,15.73225452,0.0001564,53.2145,227.6716,52.2567,307.8595,-4.9926e-06,-1.322e-05,0.0,0 STARLINK-5447,1 54779U 22175X   23002.66863407 -.00001322  00000-0 -49926-5 0  9991,2 54779  53.2145 227.6716 0001564  52.2567 307.8595 15.73225452  2238,6727.823,91.532,350.74,348.635,0.0
54779.0,STARLINK-5447,PAYLOAD,2023-01-02 20:37:15,15.73308028,0.0001374,53.2144,226.7283,16.2486,343.8578,0.00081255,0.00115531,0.0,0 STARLINK-5447,1 54779U 22175X   23002.85920438  .00115531  00000-0  81255-3 0  9995,2 54779  53.2144 226.7283 0001374  16.2486 343.8578 15.73308028  4420,6727.587,91.527,350.37699999999984,348.528,0.0
54779.0,STARLINK-5447,PAYLOAD,2023-01-03 05:46:08,15.73227032,0.0001403,53.2143,224.8419,36.7682,323.3434,0.00032243,0.00044926,0.0,0 STARLINK-5447,1 54779U 22175X   23003.24037693  .00044926  00000-0  32243-3 0  9993,2 54779  53.2143 224.8419 0001403  36.7682 323.3434 15.73227032  2323,6727.818,91.532,350.62699999999984,348.73900000000015,0.0
54779.0,STARLINK-5447,PAYLOAD,2023-01-03 11:52:03,15.73233624,0.000164,53.214,223.5853,41.8711,318.2434,0.00039183,0.0005481,0.0,0 STARLINK-5447,1 54779U 22175X   23003.49448689  .00054810  00000-0  39183-3 0  9994,2 54779  53.2140 223.5853 0001640  41.8711 318.2434 15.73233624  4522,6727.799,91.531,350.76800000000014,348.561,0.0
54779.0,STARLINK-5447,PAYLOAD,2023-01-03 17:57:59,15.73216412,0.0001733999999999,53.2138,222.3273,44.6596,315.4564,0.00036213,0.00050546,0.0,0 STARLINK-5447,1 54779U 22175X   23003.74860190  .00050546  00000-0  36213-3 0  9990,2 54779  53.2138 222.3273 0001734  44.6596 315.4564 15.73216412  2402,6727.848000000001,91.532,350.88,348.547,0.0
54779.0,STARLINK-5447,PAYLOAD,2023-01-04 07:41:18,15.73242773,0.0002271,53.2138,219.4974,53.2322,306.8907,0.00050407,0.00070856,0.0,0 STARLINK-5447,1 54779U 22175X   23004.32034843  .00070856  00000-0  50407-3 0  9990,2 54779  53.2138 219.4974 0002271  53.2322 306.8907 15.73242773  2490,6727.773,91.531,351.166,348.11,0.0
54779.0,STARLINK-5447,PAYLOAD,2023-01-04 22:56:04,15.73277877,0.0001161999999999,53.2131,216.3535,25.5456,334.5621,0.00039645,0.00055574,0.0,0 STARLINK-5447,1 54779U 22175X   23004.95560667  .00055574  00000-0  39645-3 0  9998,2 54779  53.2131 216.3535 0001162  25.5456 334.5621 15.73277877  2595,6727.6730000000025,91.529,350.32,348.756,0.0
54779.0,STARLINK-5447,PAYLOAD,2023-01-05 14:10:50,15.73295885,0.0001547,53.2127,213.2104,31.148000000000003,328.9632,0.0003966,0.0005564,0.0,0 STARLINK-5447,1 54779U 22175X   23005.59086379  .00055640  00000-0  39660-3 0  9993,2 54779  53.2127 213.2104 0001547  31.1480 328.9632 15.73295885  4854,6727.621999999999,91.528,350.528,348.446,0.0
54779.0,STARLINK-5447,PAYLOAD,2023-01-06 06:57:08,15.73170059,0.0003076,53.213,209.7521,54.01,306.1205,0.00051727,0.00072522,0.0,0 STARLINK-5447,1 54779U 22175X   23006.28967823  .00072522  00000-0  51727-3 0  9998,2 54779  53.2130 209.7521 0003076  54.0100 306.1205 15.73170059  2805,6727.981,91.535,351.915,347.776,0.0
54779.0,STARLINK-5447,PAYLOAD,2023-01-06 22:11:57,15.73194661,0.0001713,53.2122,206.6076,33.9874,326.1256,0.00032921,0.00045825,0.0,0 STARLINK-5447,1 54779U 22175X   23006.92496607  .00045825  00000-0  32921-3 0  9997,2 54779  53.2122 206.6076 0001713  33.9874 326.1256 15.73194661  5061,6727.91,91.533,350.92800000000005,348.6230000000001,0.0
54779.0,STARLINK-5447,PAYLOAD,2023-01-07 05:49:21,15.73220041,0.0002248,53.2126,205.038,37.5718,322.5458,0.00027224,0.00037794,0.0,0 STARLINK-5447,1 54779U 22175X   23007.24260633  .00037794  00000-0  27224-3 0  9997,2 54779  53.2126 205.0380 0002248  37.5718 322.5458 15.73220041  5119,6727.838000000002,91.532,351.215,348.191,0.0
54779.0,STARLINK-5447,PAYLOAD,2023-01-07 19:32:41,15.73180365,0.000157,53.2132,202.2062,25.2023,334.9073,3.8995e-05,4.851e-05,0.0,0 STARLINK-5447,1 54779U 22175X   23007.81436353  .00004851  00000-0  38995-4 0  9990,2 54779  53.2132 202.2062 0001570  25.2023 334.9073 15.73180365  3046,6727.951,91.534,350.872,348.76,0.0
54779.0,STARLINK-5447,PAYLOAD,2023-01-08 06:13:03,15.73212177,0.0001875,53.2142,200.0064,34.736,325.3783,0.00035884,0.00050069,0.0,0 STARLINK-5447,1 54779U 22175X   23008.25906601  .00050069  00000-0  35884-3 0  9992,2 54779  53.2142 200.0064 0001875  34.7360 325.3783 15.73212177  3119,6727.86,91.532,350.987,348.464,0.0
54779.0,STARLINK-5447,PAYLOAD,2023-01-08 15:21:55,15.73235458,0.0001751,53.2138,198.1208,20.5071,339.6019,0.00021708,0.00030001,0.0,0 STARLINK-5447,1 54779U 22175X   23008.64022723  .00030001  00000-0  21708-3 0  9993,2 54779  53.2138 198.1208 0001751  20.5071 339.6019 15.73235458  3179,6727.794,91.531,350.837,348.481,0.0
